0 ARIANE 1 DEB
1 26683U 85056H   13286.22002343 -.00000155  00000-0 -62276-3 0   524
2 26683 005.3980 198.3119 7097035 216.6786 346.2148 02.22790750110623
0 ARIANE 1 DEB
1 26683U 85056H   13287.10999145 -.00000498  00000-0 -15631-1 0   539
2 26683 005.3968 197.9703 7097721 217.3307 340.0100 02.22791800110641
0 ARIANE 1 DEB
1 26683U 85056H   13294.38263018 -.00000488  00000-0 -15631-1 0   540
2 26683 005.3997 194.9413 7100425 222.8740 052.9493 02.22787164110806
0 ARIANE 1 DEB
1 26683U 85056H   13295.19472422 -.00000259  00000-0 -58489-2 0   557
2 26683 005.3988 194.7465 7099752 223.3789 344.2699 02.22788501110823
